1 32260U 07047A   21001.90804203  .00000072  00000-0  00000+0 0  9999
2 32260  53.2113 162.5689 0129273  54.6041 306.5700  2.00548515 96872
1 32260U 07047A   21001.90804203  .00000072  00000-0  00000-0 0  9990
2 32260  53.2113 162.5689 0129273  54.6041 306.5700  2.00548515 96894
1 32260U 07047A   21002.90526903  .00000078  00000-0  00000-0 0  9995
2 32260  53.2114 162.5276 0129298  54.6219 306.5540  2.00548446 96919
1 32260U 07047A   21004.40111302  .00000087  00000-0  00000-0 0  9995
2 32260  53.2117 162.4657 0129333  54.6477 306.5328  2.00548360 96942
1 32260U 07047A   21005.89695547  .00000090  00000-0  00000-0 0  9991
2 32260  53.2117 162.4037 0129319  54.6626 306.5213  2.00548234 96970
1 32260U 07047A   21007.39279396  .00000081  00000-0  00000-0 0  9998
2 32260  53.2116 162.3417 0129329  54.6907 306.4927  2.00548164 97001
1 32260U 07047A   21008.39001533  .00000069  00000-0  00000-0 0  9991
2 32260  53.2120 162.3004 0129384  54.7147 306.4657  2.00548110 97029
1 32260U 07047A   21009.88584243  .00000044  00000-0  00000-0 0  9993
2 32260  53.2122 162.2384 0129383  54.7406 306.4311  2.00548036 97055
1 32260U 07047A   21010.38445020  .00000036  00000-0  00000-0 0  9990
2 32260  53.2122 162.2178 0129354  54.7423 306.4256  2.00548017 97061
1 32260U 07047A   21012.37888828  .00000010  00000-0  00000+0 0  9999
2 32260  53.2125 162.1352 0129323  54.7697 306.3868  2.00547959 97080
1 32260U 07047A   21012.37888828  .00000010  00000-0  00000-0 0  9990
2 32260  53.2125 162.1352 0129323  54.7697 306.3868  2.00547959 97103
1 32260U 07047A   21013.37611169  .00000006  00000-0  00000-0 0  9998
2 32260  53.2127 162.0938 0129355  54.7849 306.3694  2.00547933 97129
1 32260U 07047A   21013.87472466  .00000006  00000-0  00000-0 0  9998
2 32260  53.2127 162.0732 0129342  54.7849 306.3689  2.00547902 97138
1 32260U 07047A   21014.87195341  .00000011  00000-0  00000-0 0  9999
2 32260  53.2128 162.0320 0129345  54.7905 306.3644  2.00547878 97153
1 32260U 07047A   21014.87195381  .00000011  00000-0  00000-0 0  9993
2 32260  53.2129 162.0319 0129336  54.7947 306.3602  2.00547871 97155
1 32260U 07047A   21016.86641970  .00000029  00000-0  00000-0 0  9993
2 32260  53.2131 161.9493 0129333  54.8120 306.3502  2.00547801 97196
1 32260U 07047A   21017.86365468  .00000038  00000-0  00000-0 0  9999
2 32260  53.2132 161.9081 0129353  54.8329 306.3342  2.00547763 97215
1 32260U 07047A   21019.35950579  .00000046  00000-0  00000-0 0  9997
2 32260  53.2134 161.8461 0129383  54.8554 306.3177  2.00547693 97242
1 32260U 07047A   21020.85535307  .00000045  00000-0  00000-0 0  9991
2 32260  53.2136 161.7842 0129384  54.8848 306.2913  2.00547644 97279
1 32260U 07047A   21021.85258226  .00000040  00000-0  00000-0 0  9999
2 32260  53.2137 161.7429 0129384  54.8993 306.2768  2.00547569 97298
1 32260U 07047A   21022.84959044  .00000033  00000-0  00000+0 0  9996
2 32260  53.2536 161.7009 0128719  54.4482 306.7132  2.00576022 97291
1 32260U 07047A   21022.84959044  .00000033  00000-0  00000-0 0  9997
2 32260  53.2536 161.7009 0128719  54.4482 306.7132  2.00576022 97314
1 32260U 07047A   21023.84667388  .00000027  00000-0  00000+0 0  9997
2 32260  53.2136 161.6602 0128726  54.5742 306.5864  2.00576705 97314
1 32260U 07047A   21023.84667388  .00000027  00000-0  00000-0 0  9998
2 32260  53.2136 161.6602 0128726  54.5742 306.5864  2.00576705 97336
1 32260U 07047A   21025.34229435  .00000020  00000-0  00000-0 0  9995
2 32260  53.2141 161.5982 0128719  54.6605 306.4965  2.00576754 97361
1 32260U 07047A   21026.33937558  .00000018  00000-0  00000+0 0  9993
2 32260  53.2141 161.5569 0128693  54.6666 306.4874  2.00576649 97362
1 32260U 07047A   21026.33937558  .00000018  00000-0  00000-0 0  9994
2 32260  53.2141 161.5569 0128693  54.6666 306.4874  2.00576649 97384
1 32260U 07047A   21026.83791697  .00000018  00000-0  00000-0 0  9991
2 32260  53.2141 161.5362 0128698  54.6730 306.4802  2.00576607 97398
1 32260U 07047A   21027.33645887  .00000018  00000-0  00000-0 0  9996
2 32260  53.2143 161.5156 0128717  54.6859 306.4671  2.00576579 97409
1 32260U 07047A   21028.33354482  .00000021  00000-0  00000-0 0  9999
2 32260  53.2144 161.4743 0128726  54.6997 306.4536  2.00576501 97421
1 32260U 07047A   21029.33063363  .00000027  00000-0  00000-0 0  9991
2 32260  53.2145 161.4330 0128723  54.7096 306.4459  2.00576414 97441
1 32260U 07047A   21029.82917903  .00000030  00000-0  00000-0 0  9997
2 32260  53.2145 161.4124 0128713  54.7122 306.4448  2.00576385 97457
1 32260U 07047A   21030.32772507  .00000033  00000-0  00000-0 0  9996
2 32260  53.2146 161.3917 0128711  54.7173 306.4419  2.00576347 97468
1 32260U 07047A   21030.82627130  .00000037  00000-0  00000-0 0  9996
2 32260  53.2147 161.3711 0128702  54.7144 306.4471  2.00576276 97479
1 32260U 07047A   21031.82336504  .00000042  00000-0  00000-0 0  9995
2 32260  53.2145 161.3298 0128694  54.7214 306.4452  2.00576200 97493
1 32260U 07047A   21033.81754978  .00000043  00000-0  00000-0 0  9996
2 32260  53.2147 161.2472 0128690  54.7417 306.4327  2.00576070 97530
1 32260U 07047A   21034.81463780  .00000035  00000-0  00000-0 0  9996
2 32260  53.2148 161.2059 0128674  54.7481 306.4268  2.00576014 97559
1 32260U 07047A   21036.31026500  .00000015  00000-0  00000-0 0  9996
2 32260  53.2149 161.1439 0128676  54.7708 306.4008  2.00575958 97586
1 32260U 07047A   21036.80880575  .00000007  00000-0  00000-0 0  9991
2 32260  53.2149 161.1233 0128666  54.7692 306.4002  2.00575909 97590
1 32260U 07047A   21038.30442894 -.00000018  00000-0  00000-0 0  9999
2 32260  53.2151 161.0613 0128678  54.7934 306.3695  2.00575863 97626
1 32260U 07047A   21038.80297059 -.00000024  00000-0  00000-0 0  9992
2 32260  53.2151 161.0407 0128674  54.7982 306.3627  2.00575845 97632
1 32260U 07047A   21039.80005498 -.00000034  00000-0  00000-0 0  9998
2 32260  53.2151 160.9993 0128635  54.7925 306.3654  2.00575784 97658
1 32260U 07047A   21039.80005547 -.00000034  00000-0  00000-0 0  9993
2 32260  53.2152 160.9993 0128650  54.8026 306.3556  2.00575803 97652
1 32260U 07047A   21041.29568946 -.00000036  00000-0  00000-0 0  9998
2 32260  53.2152 160.9373 0128692  54.8242 306.3353  2.00575748 97686
1 32260U 07047A   21041.29568994 -.00000036  00000-0  00000-0 0  9991
2 32260  53.2153 160.9373 0128709  54.8342 306.3257  2.00575762 97686
1 32260U 07047A   21042.29278381 -.00000030  00000-0  00000-0 0  9994
2 32260  53.2153 160.8960 0128689  54.8328 306.3303  2.00575711 97707
1 32260U 07047A   21042.79133198 -.00000025  00000-0  00000-0 0  9999
2 32260  53.2153 160.8754 0128708  54.8432 306.3227  2.00575710 97711
1 32260U 07047A   21043.78842978 -.00000015  00000-0  00000-0 0  9991
2 32260  53.2154 160.8341 0128697  54.8490 306.3228  2.00575671 97734
1 32260U 07047A   21046.28117658  .00000006  00000-0  00000+0 0  9997
2 32260  53.2156 160.7308 0128702  54.8715 306.3161  2.00575566 97767
1 32260U 07047A   21046.28117658  .00000006  00000-0  00000-0 0  9998
2 32260  53.2156 160.7308 0128702  54.8715 306.3161  2.00575566 97789
1 32260U 07047A   21047.77682097  .00000007  00000-0  00000-0 0  9998
2 32260  53.2157 160.6689 0128692  54.8868 306.3069  2.00575513 97811
1 32260U 07047A   21048.77391434  .00000004  00000-0  00000-0 0  9998
2 32260  53.2156 160.6276 0128678  54.8957 306.3002  2.00575438 97830
